H1 CPF 01  gfz 2022 11 09 01  8131 terrasarx 
H2 0702601  6201 31698    2022 11 09 00 59 42 2022 11 14 00 00 42   120 1 1  0 0 0
H9
10 0 59893  82782.000000  0   -1504126.968   6419379.191  -2006348.005
10 0 59893  82902.000000  0   -1257618.836   6147742.087  -2851458.009
10 0 59893  83022.000000  0    -994920.564   5764488.826  -3646512.454
10 0 59893  83142.000000  0    -722523.756   5276177.007  -4377620.955
10 0 59893  83262.000000  0    -446948.563   4691295.199  -5032044.748
10 0 59893  83382.000000  0    -174596.632   4020104.293  -5598412.768
10 0 59893  83502.000000  0      88389.914   3274447.656  -6066911.627
10 0 59893  83622.000000  0     336259.963   2467533.744  -6429445.222
10 0 59893  83742.000000  0     563772.288   1613698.164  -6679762.443
10 0 59893  83862.000000  0     766301.035    728149.686  -6813555.028
10 0 59893  83982.000000  0     939925.478   -173297.577  -6828523.750
10 0 59893  84102.000000  0    1081502.942  -1074501.488  -6724413.276
10 0 59893  84222.000000  0    1188723.809  -1959273.728  -6503014.252
10 0 59893  84342.000000  0    1260148.541  -2811662.098  -6168136.054
10 0 59893  84462.000000  0    1295226.731  -3616232.893  -5725550.455
10 0 59893  84582.000000  0    1294295.849  -4358350.047  -5182902.126
10 0 59893  84702.000000  0    1258561.626  -5024442.235  -4549586.488
10 0 59893  84822.000000  0    1190059.602  -5602255.934  -3836598.954
10 0 59893  84942.000000  0    1091597.306  -6081090.007  -3056353.282
10 0 59893  85062.000000  0     966679.222  -6452004.667  -2222472.008
10 0 59893  85182.000000  0     819415.901  -6708001.030  -1349551.843
10 0 59893  85302.000000  0     654418.243  -6844165.318   -452906.841
10 0 59893  85422.000000  0     476679.713  -6857772.603    451704.869
10 0 59893  85542.000000  0     291449.700  -6748348.172   1348364.506
10 0 59893  85662.000000  0     104101.021  -6517684.574   2221281.468
10 0 59893  85782.000000  0     -80005.049  -6169812.324   3055081.564
10 0 59893  85902.000000  0    -255652.658  -5710923.244   3835086.617
10 0 59893  86022.000000  0    -417901.167  -5149251.310   4547576.566
10 0 59893  86142.000000  0    -562206.870  -4494916.013   5180033.158
10 0 59893  86262.000000  0    -684533.711  -3759730.099   5721359.263
10 0 59893  86382.000000  0    -781451.002  -2956976.500   6162071.590
10 0 59894    102.000000  0    -850215.770  -2101159.012   6494460.429
10 0 59894    222.000000  0    -888838.211  -1207736.188   6712716.728
10 0 59894    342.000000  0    -896129.750   -292840.435   6813028.874
10 0 59894    462.000000  0    -871733.103    627014.351   6793645.655
10 0 59894    582.000000  0    -816132.270   1535230.588   6654904.994
10 0 59894    702.000000  0    -730642.667   2415425.933   6399228.301
10 0 59894    822.000000  0    -617382.254   3251728.459   6031080.903
10 0 59894    942.000000  0    -479224.278   4029064.321   5556898.958
10 0 59894   1062.000000  0    -319731.990   4733432.669   4984982.288
10 0 59894   1182.000000  0    -143076.464   5352164.203   4325356.063
10 0 59894   1302.000000  0      46061.349   5874157.621   3589598.069
10 0 59894   1422.000000  0     242601.137   6290085.845   2790640.604
10 0 59894   1542.000000  0     441184.928   6592578.580   1942544.095
10 0 59894   1662.000000  0     636308.649   6776360.979   1060242.484
10 0 59894   1782.000000  0     822457.739   6838351.043    159274.383
10 0 59894   1902.000000  0     994245.022   6777714.093   -744498.574
10 0 59894   2022.000000  0    1146545.685   6595871.448  -1635179.808
10 0 59894   2142.000000  0    1274626.215   6296464.470  -2497124.901
10 0 59894   2262.000000  0    1374264.707   5885274.972  -3315222.665
10 0 59894   2382.000000  0    1441859.723   5370103.607  -4075163.860
10 0 59894   2502.000000  0    1474525.114   4760609.939  -4763691.848
10 0 59894   2622.000000  0    1470168.402   4068118.774  -5368829.671
10 0 59894   2742.000000  0    1427551.052   3305399.813  -5880080.517
10 0 59894   2862.000000  0    1346329.893   2486424.395  -6288600.546
10 0 59894   2982.000000  0    1227078.620   1626104.840  -6587339.692
10 0 59894   3102.000000  0    1071290.226    740023.705  -6771152.288
10 0 59894   3222.000000  0     881359.817   -155845.528  -6836877.239
10 0 59894   3342.000000  0     660548.112  -1045421.461  -6783385.834
10 0 59894   3462.000000  0     412926.161  -1912796.355  -6611597.358
10 0 59894   3582.000000  0     143303.013  -2742511.955  -6324465.165
10 0 59894   3702.000000  0    -142864.429  -3519830.292  -5926933.651
10 0 59894   3822.000000  0    -439577.410  -4230993.633  -5425861.013
10 0 59894   3942.000000  0    -740414.891  -4863468.596  -4829912.060
10 0 59894   4062.000000  0   -1038666.267  -5406172.346  -4149420.099
10 0 59894   4182.000000  0   -1327474.684  -5849675.472  -3396217.938
10 0 59894   4302.000000  0   -1599987.621  -6186376.509  -2583439.953
10 0 59894   4422.000000  0   -1849511.766  -6410644.488  -1725298.187
10 0 59894   4542.000000  0   -2069668.529  -6518925.708   -836834.602
10 0 59894   4662.000000  0   -2254546.156  -6509810.347     66346.077
10 0 59894   4782.000000  0   -2398844.816  -6384056.040    968357.015
10 0 59894   4902.000000  0   -2498010.535  -6144567.643   1853317.079
10 0 59894   5022.000000  0   -2548354.349  -5796333.428   2705639.690
10 0 59894   5142.000000  0   -2547153.245  -5346319.088   3510315.856
10 0 59894   5262.000000  0   -2492730.249  -4803322.715   4253184.692
10 0 59894   5382.000000  0   -2384512.337  -4177795.444   4921185.914
10 0 59894   5502.000000  0   -2223065.541  -3481632.272   5502590.689
10 0 59894   5622.000000  0   -2010105.172  -2727936.439   5987205.756
10 0 59894   5742.000000  0   -1748481.138  -1930766.022   6366546.936
10 0 59894   5862.000000  0   -1442139.719  -1104867.674   6633982.396
10 0 59894   5982.000000  0   -1096063.044   -265399.915   6784842.562
10 0 59894   6102.000000  0    -716188.057    572345.651   6816494.899
10 0 59894   6222.000000  0    -309304.866   1393221.689   6728387.755
10 0 59894   6342.000000  0     117064.673   2182498.775   6522059.700
10 0 59894   6462.000000  0     554805.750   2926129.558   6201113.999
10 0 59894   6582.000000  0     995363.862   3610999.009   5771159.620
10 0 59894   6702.000000  0    1429910.470   4225158.726   5239718.919
10 0 59894   6822.000000  0    1849518.636   4758040.442   4616102.231
10 0 59894   6942.000000  0    2245345.804   5200644.989   3911249.771
10 0 59894   7062.000000  0    2608819.527   5545700.570   3137543.955
10 0 59894   7182.000000  0    2931822.612   5787792.518   2308594.694
10 0 59894   7302.000000  0    3206873.128   5923456.416   1438995.496
10 0 59894   7422.000000  0    3427293.241   5951229.328    544060.620
10 0 59894   7542.000000  0    3587363.478   5871662.368   -360451.664
10 0 59894   7662.000000  0    3682459.510   5687291.905  -1258625.164
10 0 59894   7782.000000  0    3709166.544   5402570.933  -2134673.714
10 0 59894   7902.000000  0    3665369.515   5023762.683  -2973226.072
10 0 59894   8022.000000  0    3550315.721   4558798.458  -3759600.940
10 0 59894   8142.000000  0    3364648.764   4017104.344  -4480065.084
10 0 59894   8262.000000  0    3110414.774   3409403.429  -5122070.469
10 0 59894   8382.000000  0    2791040.323   2747496.726  -5674467.482
10 0 59894   8502.000000  0    2411283.521   2044028.465  -6127689.404
10 0 59894   8622.000000  0    1977159.287   1312241.716  -6473907.281
10 0 59894   8742.000000  0    1495841.749    565729.244  -6707152.704
10 0 59894   8862.000000  0     975545.904   -181815.273  -6823410.908
10 0 59894   8982.000000  0     425387.665   -916844.012  -6820683.286
10 0 59894   9102.000000  0    -144773.243  -1626194.786  -6699016.122
10 0 59894   9222.000000  0    -724504.845  -2297319.633  -6460499.798
10 0 59894   9342.000000  0   -1302989.213  -2918502.484  -6109238.297
10 0 59894   9462.000000  0   -1869219.482  -3479061.683  -5651285.400
10 0 59894   9582.000000  0   -2412204.670  -3969533.525  -5094551.083
10 0 59894   9702.000000  0   -2921181.133  -4381836.413  -4448677.447
10 0 59894   9822.000000  0   -3385826.228  -4709410.579  -3724881.996
10 0 59894   9942.000000  0   -3796468.547  -4947329.753  -2935771.642
10 0 59894  10062.000000  0   -4144291.599  -5092383.106  -2095129.473
10 0 59894  10182.000000  0   -4421525.752  -5143124.340  -1217676.471
10 0 59894  10302.000000  0   -4621623.121  -5099886.296   -318812.287
10 0 59894  10422.000000  0   -4739410.550  -4964760.114    585659.973
10 0 59894  10542.000000  0   -4771216.669  -4741538.651   1479819.598
10 0 59894  10662.000000  0   -4714968.631  -4435624.250   2347918.272
10 0 59894  10782.000000  0   -4570256.023  -4053903.909   3174666.215
10 0 59894  10902.000000  0   -4338361.145  -3604595.584   3945508.610
10 0 59894  11022.000000  0   -4022254.638  -3097069.451   4646887.425
10 0 59894  11142.000000  0   -3626555.929  -2541648.025   5266481.527
10 0 59894  11262.000000  0   -3157461.940  -1949392.576   5793420.783
10 0 59894  11382.000000  0   -2622645.625  -1331880.400   6218473.716
10 0 59894  11502.000000  0   -2031125.408   -700975.411   6534205.406
10 0 59894  11622.000000  0   -1393107.656    -68597.271   6735101.396
10 0 59894  11742.000000  0    -719807.468    553503.008   6817656.172
10 0 59894  11862.000000  0     -23251.693   1153959.980   6780430.607
10 0 59894  11982.000000  0     683935.446   1722000.983   6624075.814
10 0 59894  12102.000000  0    1388760.703   2247639.570   6351322.317
10 0 59894  12222.000000  0    2078099.612   2721850.876   5966934.671
10 0 59894  12342.000000  0    2738940.405   3136727.775   5477634.188
10 0 59894  12462.000000  0    3358631.800   3485616.221   4891988.257
10 0 59894  12582.000000  0    3925128.385   3763225.522   4220264.451
10 0 59894  12702.000000  0    4427227.300   3965711.471   3474256.678
10 0 59894  12822.000000  0    4854798.257   4090733.535   2667081.048
99
